NORAD_CAT_ID,OBJECT_NAME,OBJECT_TYPE,EPOCH,MEAN_MOTION,ECCENTRICITY,INCLINATION,RA_OF_ASC_NODE,ARG_OF_PERICENTER,MEAN_ANOMALY,BSTAR,MEAN_MOTION_DOT,MEAN_MOTION_DDOT,TLE_LINE0,TLE_LINE1,TLE_LINE2,SEMIMAJOR_AXIS,PERIOD,APOGEE,PERIGEE,DECAYED
53738.0,STARLINK-4662,PAYLOAD,2022-12-14 05:05:27,15.08827953,0.00014,53.2166,167.739,61.9957,298.1177,-2.1718e-06,-3.22e-06,0.0,0 STARLINK-4662,1 53738U 22107AQ  22348.21212540 -.00000322  00000-0 -21718-5 0  9997,2 53738  53.2166 167.7390 0001400  61.9957 298.1177 15.08827953 15454,6917.917,95.438,540.751,538.814,0.0
53738.0,STARLINK-4662,PAYLOAD,2022-12-14 13:02:23,15.08828992,0.0001409,53.2161,166.2516,58.3517,301.7612,-3.9397000000000014e-06,-3.51e-06,0.0,0 STARLINK-4662,1 53738U 22107AQ  22348.54332739 -.00000351  00000-0 -39397-5 0  9990,2 53738  53.2161 166.2516 0001409  58.3517 301.7612 15.08828992 16139,6917.9140000000025,95.438,540.754,538.804,0.0
53738.0,STARLINK-4662,PAYLOAD,2022-12-14 16:13:09,15.08828212,0.0001303,53.2166,165.6571,61.1858,298.9264,-7.7923e-06,-4.12e-06,0.0,0 STARLINK-4662,1 53738U 22107AQ  22348.67580838 -.00000412  00000-0 -77923-5 0  9994,2 53738  53.2166 165.6571 0001303  61.1858 298.9264 15.08828212 16158,6917.916,95.438,540.683,538.88,0.0
53738.0,STARLINK-4662,PAYLOAD,2022-12-15 12:53:10,15.08835403,0.0001448,53.2152,161.7908,58.1577,301.9556,3.9999e-05,3.49e-06,0.0,0 STARLINK-4662,1 53738U 22107AQ  22349.53692595  .00000349  00000-0  39999-4 0  9991,2 53738  53.2152 161.7908 0001448  58.1577 301.9556 15.08835403 15651,6917.894,95.438,540.761,538.758,0.0
53738.0,STARLINK-4662,PAYLOAD,2022-12-15 19:14:42,15.08840108,0.0001561,53.2168,160.602,61.7555,298.3594,8.015e-05,9.88e-06,0.0,0 STARLINK-4662,1 53738U 22107AQ  22349.80188470  .00000988  00000-0  80150-4 0  9997,2 53738  53.2168 160.6020 0001561  61.7555 298.3594 15.08840108 16327,6917.88,95.438,540.825,538.665,0.0
53738.0,STARLINK-4662,PAYLOAD,2022-12-15 22:25:28,15.08846027,0.0001601,53.2161,160.0073,67.54899999999999,292.5672,-0.00010218,-1.914e-05,0.0,0 STARLINK-4662,1 53738U 22107AQ  22349.93436117 -.00001914  00000-0 -10218-3 0  9994,2 53738  53.2161 160.0073 0001601  67.5490 292.5672 15.08846027 15710,6917.861999999999,95.437,540.835,538.619,0.0
53738.0,STARLINK-4662,PAYLOAD,2022-12-16 04:47:01,15.08838928,0.000164,53.2161,158.81799999999996,62.8394,297.2765,0.00027391,4.074e-05,0.0,0 STARLINK-4662,1 53738U 22107AQ  22350.19932766  .00004074  00000-0  27391-3 0  9993,2 53738  53.2161 158.8180 0001640  62.8394 297.2765 15.08838928 15758,6917.884,95.438,540.883,538.614,0.0
53738.0,STARLINK-4662,PAYLOAD,2022-12-16 11:08:34,15.0884201,0.0001656,53.2161,157.6284,63.2624,296.8537,0.00028287,4.217e-05,0.0,0 STARLINK-4662,1 53738U 22107AQ  22350.46428719  .00004217  00000-0  28287-3 0  9995,2 53738  53.2161 157.6284 0001656  63.2624 296.8537 15.08842010 16422,6917.874,95.437,540.885,538.594,0.0
53738.0,STARLINK-4662,PAYLOAD,2022-12-16 20:40:52,15.08850122,0.0001694,53.2158,155.8444,63.1364,296.9801,0.00037012,5.609e-05,0.0,0 STARLINK-4662,1 53738U 22107AQ  22350.86172422  .00005609  00000-0  37012-3 0  9998,2 53738  53.2158 155.8444 0001694  63.1364 296.9801 15.08850122 16482,6917.849,95.437,540.886,538.543,0.0
53738.0,STARLINK-4662,PAYLOAD,2022-12-17 04:37:48,15.08857055,0.0001721999999999,53.2158,154.3577,62.8123,297.3044,0.00043873,6.704e-05,0.0,0 STARLINK-4662,1 53738U 22107AQ  22351.19292038  .00006704  00000-0  43873-3 0  9990,2 53738  53.2158 154.3577 0001722  62.8123 297.3044 15.08857055 16536,6917.828,95.436,540.885,538.502,0.0
53738.0,STARLINK-4662,PAYLOAD,2022-12-17 17:20:53,15.08845926,0.0001716,53.216,151.9786,64.6389,295.4781,9.1542e-05,1.169e-05,0.0,0 STARLINK-4662,1 53738U 22107AQ  22351.72284103  .00001169  00000-0  91542-4 0  9990,2 53738  53.2160 151.9786 0001716  64.6389 295.4781 15.08845926 15980,6917.861999999999,95.437,540.914,538.54,0.0
53738.0,STARLINK-4662,PAYLOAD,2022-12-17 20:31:39,15.088471599999998,0.0001732,53.2161,151.3839,64.5717,295.5455,0.00010111,1.322e-05,0.0,0 STARLINK-4662,1 53738U 22107AQ  22351.85531997  .00001322  00000-0  10111-3 0  9993,2 53738  53.2161 151.3839 0001732  64.5717 295.5455 15.08847160 16630,6917.859,95.437,540.922,538.525,0.0
53738.0,STARLINK-4662,PAYLOAD,2022-12-18 10:50:08,15.08839592,0.0001725,53.2163,148.7075,65.176,294.9412,-2.6386e-05,-7.08e-06,0.0,0 STARLINK-4662,1 53738U 22107AQ  22352.45148279 -.00000708  00000-0 -26386-4 0  9998,2 53738  53.2163 148.7075 0001725  65.1760 294.9412 15.08839592 16097,6917.882,95.438,540.94,538.553,0.0
53738.0,STARLINK-4662,PAYLOAD,2022-12-18 20:22:27,15.08840517,0.0001686,53.2174,146.9238,61.5789,298.5373,-4.6134e-05,-1.022e-05,0.0,0 STARLINK-4662,1 53738U 22107AQ  22352.84892438 -.00001022  00000-0 -46134-4 0  9997,2 53738  53.2174 146.9238 0001686  61.5789 298.5373 15.08840517 16788,6917.879,95.438,540.91,538.577,0.0
53738.0,STARLINK-4662,PAYLOAD,2022-12-19 12:16:17,15.08845227,0.0001618,53.2171,143.9499,58.8941,301.221,9.8822e-05,1.285e-05,0.0,0 STARLINK-4662,1 53738U 22107AQ  22353.51131535  .00001285  00000-0  98822-4 0  9996,2 53738  53.2171 143.9499 0001618  58.8941 301.2210 15.08845227 16252,6917.864000000001,95.437,540.849,538.61,0.0
53738.0,STARLINK-4662,PAYLOAD,2022-12-19 20:13:12,15.08851653,0.0001626,53.2171,142.4631,57.5458,302.5692,0.000129,1.766e-05,0.0,0 STARLINK-4662,1 53738U 22107AQ  22353.84250938  .00001766  00000-0  12900-3 0  9997,2 53738  53.2171 142.4631 0001626  57.5458 302.5692 15.08851653 16935,6917.845,95.437,540.835,538.585,0.0
53738.0,STARLINK-4662,PAYLOAD,2022-12-20 12:07:04,15.08847015,0.0001606,53.2172,139.4894,56.4982,303.6164,0.00016952,2.411e-05,0.0,0 STARLINK-4662,1 53738U 22107AQ  22354.50490908  .00002411  00000-0  16952-3 0  9993,2 53738  53.2172 139.4894 0001606  56.4982 303.6164 15.08847015 17036,6917.859,95.437,540.835,538.613,0.0
53738.0,STARLINK-4662,PAYLOAD,2022-12-20 18:28:37,15.08839446,0.0001622,53.2173,138.3001,56.4099,303.7048,9.7584e-05,1.265e-05,0.0,0 STARLINK-4662,1 53738U 22107AQ  22354.76987525  .00001265  00000-0  97584-4 0  9994,2 53738  53.2173 138.3001 0001622  56.4099 303.7048 15.08839446 16447,6917.882,95.438,540.869,538.625,0.0
53738.0,STARLINK-4662,PAYLOAD,2022-12-21 11:57:52,15.08824275,0.0001740999999999,53.2162,135.0286,62.8285,297.2884,-0.00025181,-4.292e-05,0.0,0 STARLINK-4662,1 53738U 22107AQ  22355.49852645 -.00004292  00000-0 -25181-3 0  9997,2 53738  53.2162 135.0286 0001741  62.8285 297.2884 15.08824275 16555,6917.928000000001,95.439,540.998,538.589,0.0
53738.0,STARLINK-4662,PAYLOAD,2022-12-22 02:16:21,15.08828805,0.0001673,53.2177,132.3526,59.2369,300.8788,-0.00015253,-2.714e-05,0.0,0 STARLINK-4662,1 53738U 22107AQ  22356.09468890 -.00002714  00000-0 -15253-3 0  9995,2 53738  53.2177 132.3526 0001673  59.2369 300.8788 15.08828805 16642,6917.915,95.438,540.937,538.622,0.0
53738.0,STARLINK-4662,PAYLOAD,2022-12-22 18:10:12,15.08834476,0.0001703,53.2182,129.3786,54.6394,305.4757,0.00010113,1.322e-05,0.0,0 STARLINK-4662,1 53738U 22107AQ  22356.75709140  .00001322  00000-0  10113-3 0  9996,2 53738  53.2182 129.3786 0001703  54.6394 305.4757 15.08834476 17372,6917.897,95.438,540.94,538.5840000000002,0.0
53738.0,STARLINK-4662,PAYLOAD,2022-12-23 02:07:08,15.08841024,0.0001696999999999,53.2182,127.8921,58.3118,301.8039,0.00029033,4.336e-05,0.0,0 STARLINK-4662,1 53738U 22107AQ  22357.08828977  .00004336  00000-0  29033-3 0  9992,2 53738  53.2182 127.8921 0001697  58.3118 301.8039 15.08841024 16798,6917.877,95.437,540.9159999999998,538.568,0.0
53738.0,STARLINK-4662,PAYLOAD,2022-12-23 14:50:12,15.08852703,0.000161,53.2182,125.5137,61.7197,298.3958,0.00051648,7.944e-05,0.0,0 STARLINK-4662,1 53738U 22107AQ  22357.61820590  .00007944  00000-0  51648-3 0  9999,2 53738  53.2182 125.5137 0001610  61.7197 298.3958 15.08852703 17508,6917.842,95.437,540.82,538.5930000000002,0.0
53738.0,STARLINK-4662,PAYLOAD,2022-12-23 16:25:36,15.08858478,0.0001613,53.2179,125.2164,61.3116,298.8038,0.00059625,9.219e-05,0.0,0 STARLINK-4662,1 53738U 22107AQ  22357.68444519  .00009219  00000-0  59625-3 0  9999,2 53738  53.2179 125.2164 0001613  61.3116 298.8038 15.08858478 17511,6917.824000000001,95.436,540.805,538.573,0.0
53738.0,STARLINK-4662,PAYLOAD,2022-12-24 01:57:54,15.08853553,0.0001631999999999,53.2178,123.4324,60.7491,299.3664,0.0002937,4.391e-05,0.0,0 STARLINK-4662,1 53738U 22107AQ  22358.08188459  .00004391  00000-0  29370-3 0  9992,2 53738  53.2178 123.4324 0001632  60.7491 299.3664 15.08853553 16944,6917.839,95.437,540.8330000000002,538.575,0.0
53738.0,STARLINK-4662,PAYLOAD,2022-12-24 09:54:50,15.08858371,0.0001527,53.218,121.9458,61.1367,298.9778,0.0002995,4.484e-05,0.0,0 STARLINK-4662,1 53738U 22107AQ  22358.41308006  .00004484  00000-0  29950-3 0  9998,2 53738  53.2180 121.9458 0001527  61.1367 298.9778 15.08858371 17628,6917.824000000001,95.436,540.746,538.633,0.0
53738.0,STARLINK-4662,PAYLOAD,2022-12-24 16:16:22,15.08851414,0.0001686,53.218,120.7562,60.7421,299.374,5.3667e-05,5.66e-06,0.0,0 STARLINK-4662,1 53738U 22107AQ  22358.67803990  .00000566  00000-0  53667-4 0  9998,2 53738  53.2180 120.7562 0001686  60.7421 299.3740 15.08851414 17662,6917.846,95.437,540.877,538.544,0.0
53738.0,STARLINK-4662,PAYLOAD,2022-12-25 03:24:04,15.08856107,0.0001695,53.2181,118.6753,58.4466,301.6692,0.00018796,2.706e-05,0.0,0 STARLINK-4662,1 53738U 22107AQ  22359.14171591  .00002706  00000-0  18796-3 0  9997,2 53738  53.2181 118.6753 0001695  58.4466 301.6692 15.08856107 17100,6917.831,95.437,540.869,538.524,0.0
53738.0,STARLINK-4662,PAYLOAD,2022-12-25 09:45:36,15.08845279,0.0001279,53.2186,117.4855,58.2129,301.8988,0.00011826,1.595e-05,0.0,0 STARLINK-4662,1 53738U 22107AQ  22359.40667815  .00001595  00000-0  11826-3 0  9997,2 53738  53.2186 117.4855 0001279  58.2129 301.8988 15.08845279 17149,6917.864000000001,95.437,540.614,538.844,0.0
